NORAD_CAT_ID,OBJECT_NAME,OBJECT_TYPE,EPOCH,MEAN_MOTION,ECCENTRICITY,INCLINATION,RA_OF_ASC_NODE,ARG_OF_PERICENTER,MEAN_ANOMALY,BSTAR,MEAN_MOTION_DOT,MEAN_MOTION_DDOT,TLE_LINE0,TLE_LINE1,TLE_LINE2,SEMIMAJOR_AXIS,PERIOD,APOGEE,PERIGEE,DECAYED
51126.0,STARLINK-3386,PAYLOAD,2022-06-10 19:59:54,15.08841984,0.0001631,53.221,319.6618,59.6953,300.42,0.00011513,1.545e-05,0.0,0 STARLINK-3386,1 51126U 22005Y   22161.83327274  .00001545  00000-0  11513-3 0  9991,2 51126  53.2210 319.6618 0001631  59.6953 300.4200 15.08841984 22249,6917.874,95.437,540.868,538.611,0.0
51126.0,STARLINK-3386,PAYLOAD,2022-06-11 18:15:19,15.08838645,0.0001727,53.2215,315.5001,59.8404,300.2759,9.3255e-05,1.196e-05,0.0,0 STARLINK-3386,1 51126U 22005Y   22162.76063713  .00001196  00000-0  93255-4 0  9995,2 51126  53.2215 315.5001 0001727  59.8404 300.2759 15.08838645 23499,6917.885,95.438,540.944,538.555,0.0
51126.0,STARLINK-3386,PAYLOAD,2022-06-11 21:26:05,15.08840849,0.0001714,53.2213,314.9052,59.3145,300.8016,0.00011062,1.473e-05,0.0,0 STARLINK-3386,1 51126U 22005Y   22162.89311550  .00001473  00000-0  11062-3 0  9997,2 51126  53.2213 314.9052 0001714  59.3145 300.8016 15.08840849 22400,6917.878000000002,95.438,540.929,538.557,0.0
51126.0,STARLINK-3386,PAYLOAD,2022-06-12 13:19:56,15.08841165,0.0001689,53.2211,311.9315,57.2157,302.8998,1.0839e-05,-1.16e-06,0.0,0 STARLINK-3386,1 51126U 22005Y   22163.55551718 -.00000116  00000-0  10839-4 0  9999,2 51126  53.2211 311.9315 0001689  57.2157 302.8998 15.08841165 22502,6917.877,95.437,540.91,538.573,0.0
51126.0,STARLINK-3386,PAYLOAD,2022-06-12 19:41:29,15.08839618,0.0001685,53.221,310.7419,56.8573,303.2581,-1.7114000000000006e-05,-5.6e-06,0.0,0 STARLINK-3386,1 51126U 22005Y   22163.82047832 -.00000560  00000-0 -17114-4 0  9993,2 51126  53.2210 310.7419 0001685  56.8573 303.2581 15.08839618 23656,6917.882,95.438,540.9119999999998,538.581,0.0
51126.0,STARLINK-3386,PAYLOAD,2022-06-13 11:35:19,15.08849242,0.0001696999999999,53.221,307.7687,56.6275,303.488,0.00012531,1.707e-05,0.0,0 STARLINK-3386,1 51126U 22005Y   22164.48286558  .00001707  00000-0  12531-3 0  9995,2 51126  53.2210 307.7687 0001697  56.6275 303.4880 15.08849242 23758,6917.852,95.437,540.891,538.543,0.0
51126.0,STARLINK-3386,PAYLOAD,2022-06-13 13:10:42,15.08850656,0.0001696,53.221,307.4714,56.4825,303.6329,0.00013719,1.897e-05,0.0,0 STARLINK-3386,1 51126U 22005Y   22164.54910416  .00001897  00000-0  13719-3 0  9998,2 51126  53.2210 307.4714 0001696  56.4825 303.6329 15.08850656 22653,6917.848000000001,95.437,540.886,538.54,0.0
51126.0,STARLINK-3386,PAYLOAD,2022-06-13 19:32:15,15.08844812,0.0001681,53.2204,306.2818,53.9085,306.2063,9.2642e-05,1.187e-05,0.0,0 STARLINK-3386,1 51126U 22005Y   22164.81406864  .00001187  00000-0  92642-4 0  9990,2 51126  53.2204 306.2818 0001681  53.9085 306.2063 15.08844812 22697,6917.866,95.437,540.894,538.568,0.0
51126.0,STARLINK-3386,PAYLOAD,2022-06-14 11:26:07,15.08836151,0.0001768,53.2208,303.309,54.909,305.2067,6.8615e-05,8.04e-06,0.0,0 STARLINK-3386,1 51126U 22005Y   22165.47647475  .00000804  00000-0  68615-4 0  9996,2 51126  53.2208 303.3090 0001768  54.9090 305.2067 15.08836151 23909,6917.892,95.438,540.98,538.534,0.0
51126.0,STARLINK-3386,PAYLOAD,2022-06-14 16:12:16,15.08839146,0.0001742,53.2208,302.4170000000001,56.2156,303.9002,9.0473e-05,1.152e-05,0.0,0 STARLINK-3386,1 51126U 22005Y   22165.67519285  .00001152  00000-0  90473-4 0  9999,2 51126  53.2208 302.4170 0001742  56.2156 303.9002 15.08839146 22829,6917.8830000000025,95.438,540.953,538.543,0.0
51126.0,STARLINK-3386,PAYLOAD,2022-06-15 08:06:08,15.08837711,0.0001773,53.2198,299.4434,49.5769,310.5378,-1.7053e-05,-5.59e-06,0.0,0 STARLINK-3386,1 51126U 22005Y   22166.33759759 -.00000559  00000-0 -17053-4 0  9990,2 51126  53.2198 299.4434 0001773  49.5769 310.5378 15.08837711 22921,6917.887,95.438,540.979,538.526,0.0
51126.0,STARLINK-3386,PAYLOAD,2022-06-15 16:03:03,15.08845719,0.0001851,53.2191,297.9566,36.8888,323.2231,-2.4e-05,-6.7e-06,0.0,0 STARLINK-3386,1 51126U 22005Y   22166.66879254 -.00000670  00000-0 -24000-4 0  9993,2 51126  53.2191 297.9566 0001851  36.8888 323.2231 15.08845719 24086,6917.863,95.437,541.008,538.447,0.0
51126.0,STARLINK-3386,PAYLOAD,2022-06-19 13:50:50,15.08855997,0.0001730999999999,53.219,280.413,53.5711,306.5440000000001,0.00064973,0.00010072,0.0,0 STARLINK-3386,1 51126U 22005Y   22170.57697368  .00010072  00000-0  64973-3 0  9999,2 51126  53.2190 280.4130 0001731  53.5711 306.5440 15.08855997 23564,6917.831,95.437,540.894,538.499,0.0
51126.0,STARLINK-3386,PAYLOAD,2022-06-19 18:36:59,15.08856382,0.000184,53.2187,279.521,51.0101,309.1054,0.00043172,6.592e-05,0.0,0 STARLINK-3386,1 51126U 22005Y   22170.77569421  .00006592  00000-0  43172-3 0  9999,2 51126  53.2187 279.5210 0001840  51.0101 309.1054 15.08856382 23597,6917.83,95.437,540.9680000000002,538.422,0.0
51126.0,STARLINK-3386,PAYLOAD,2022-06-20 02:33:55,15.08858938,0.0001757,53.2187,278.0346,52.7274,307.3878,0.0003987,6.066e-05,0.0,0 STARLINK-3386,1 51126U 22005Y   22171.10689015  .00006066  00000-0  39870-3 0  9995,2 51126  53.2187 278.0346 0001757  52.7274 307.3878 15.08858938 24759,6917.823,95.436,540.903,538.472,0.0
51126.0,STARLINK-3386,PAYLOAD,2022-06-20 08:55:27,15.08848782,0.0001656,53.2188,276.845,47.8808,312.2324,-9.4224e-06,-4.38e-06,0.0,0 STARLINK-3386,1 51126U 22005Y   22171.37184998 -.00000438  00000-0 -94224-5 0  9999,2 51126  53.2188 276.8450 0001656  47.8808 312.2324 15.08848782 24799,6917.854,95.437,540.864,538.573,0.0
51126.0,STARLINK-3386,PAYLOAD,2022-06-20 13:41:37,15.08851991,0.0001633,53.2188,275.9528,47.8657,312.2473,0.00022899,3.359e-05,0.0,0 STARLINK-3386,1 51126U 22005Y   22171.57056860  .00003359  00000-0  22899-3 0  9997,2 51126  53.2188 275.9528 0001633  47.8657 312.2473 15.08851991 23714,6917.844,95.437,540.8380000000002,538.5790000000002,0.0
51126.0,STARLINK-3386,PAYLOAD,2022-06-20 21:38:32,15.08855213,0.0001638,53.2188,274.466,46.2452,313.8676,0.00047363,7.261e-05,0.0,0 STARLINK-3386,1 51126U 22005Y   22171.90176657  .00007261  00000-0  47363-3 0  9990,2 51126  53.2188 274.4660 0001638  46.2452 313.8676 15.08855213 23764,6917.834,95.437,540.832,538.566,0.0
51126.0,STARLINK-3386,PAYLOAD,2022-06-21 10:21:37,15.08842249,0.0001702,53.2188,272.0877,49.3611,310.7529,0.00016215,2.294e-05,0.0,0 STARLINK-3386,1 51126U 22005Y   22172.43168900  .00002294  00000-0  16215-3 0  9994,2 51126  53.2188 272.0877 0001702  49.3611 310.7529 15.08842249 24951,6917.874,95.437,540.9159999999998,538.561,0.0
51126.0,STARLINK-3386,PAYLOAD,2022-06-21 13:32:24,15.08844304,0.0001665999999999,53.2189,271.4926,48.2691,311.8443,0.00014075,1.953e-05,0.0,0 STARLINK-3386,1 51126U 22005Y   22172.56416826  .00001953  00000-0  14075-3 0  9994,2 51126  53.2189 271.4926 0001666  48.2691 311.8443 15.08844304 23865,6917.8669999999975,95.437,540.885,538.58,0.0
51126.0,STARLINK-3386,PAYLOAD,2022-06-21 16:43:10,15.08848158,0.0001678,53.219,270.8979,47.1877,312.9256,0.00013613,1.88e-05,0.0,0 STARLINK-3386,1 51126U 22005Y   22172.69664630  .00001880  00000-0  13613-3 0  9992,2 51126  53.2190 270.8979 0001678  47.1877 312.9256 15.08848158 23882,6917.855,95.437,540.881,538.56,0.0
51126.0,STARLINK-3386,PAYLOAD,2022-06-22 13:23:11,15.08841463,0.0001846,53.2191,267.0334,51.257,308.8587,2.9373e-05,1.79e-06,0.0,0 STARLINK-3386,1 51126U 22005Y   22173.55776768  .00000179  00000-0  29373-4 0  9995,2 51126  53.2191 267.0334 0001846  51.2570 308.8587 15.08841463 25121,6917.876,95.437,541.018,538.464,0.0
51126.0,STARLINK-3386,PAYLOAD,2022-06-22 14:58:34,15.08841134,0.0001724,53.219,266.7357,48.4981,311.6159,8.6559e-05,1.09e-05,0.0,0 STARLINK-3386,1 51126U 22005Y   22173.62400834  .00001090  00000-0  86559-4 0  9993,2 51126  53.2190 266.7357 0001724  48.4981 311.6159 15.08841134 24020,6917.877,95.437,540.935,538.549,0.0
51126.0,STARLINK-3386,PAYLOAD,2022-06-23 11:38:34,15.08840159,0.0001718,53.2201,262.8715,56.6006,303.5151,6.6612e-06,-1.82e-06,0.0,0 STARLINK-3386,1 51126U 22005Y   22174.48512698 -.00000182  00000-0  66612-5 0  9991,2 51126  53.2201 262.8715 0001718  56.6006 303.5151 15.08840159 24152,6917.88,95.438,540.933,538.556,0.0
51126.0,STARLINK-3386,PAYLOAD,2022-06-23 18:00:07,15.08837793,0.000174,53.2199,261.6811,50.4791,309.6355,4.8693e-05,4.87e-06,0.0,0 STARLINK-3386,1 51126U 22005Y   22174.75009172  .00000487  00000-0  48693-4 0  9994,2 51126  53.2199 261.6811 0001740  50.4791 309.6355 15.08837793 25301,6917.887,95.438,540.956,538.548,0.0
51126.0,STARLINK-3386,PAYLOAD,2022-06-23 22:46:18,15.08827948,0.0001692,53.2198,260.789,48.63,311.4837,-7.282899999999999e-05,-1.447e-05,0.0,0 STARLINK-3386,1 51126U 22005Y   22174.94882085 -.00001447  00000-0 -72829-4 0  9994,2 51126  53.2198 260.7890 0001692  48.6300 311.4837 15.08827948 25338,6917.917,95.438,540.953,538.612,0.0
51126.0,STARLINK-3386,PAYLOAD,2022-06-24 11:29:22,15.08845263,0.0001559,53.2197,258.4101,43.7626,316.3489,-0.00018245,-3.191e-05,0.0,0 STARLINK-3386,1 51126U 22005Y   22175.47873617 -.00003191  00000-0 -18245-3 0  9993,2 51126  53.2197 258.4101 0001559  43.7626 316.3489 15.08845263 25411,6917.864000000001,95.437,540.808,538.651,0.0
51126.0,STARLINK-3386,PAYLOAD,2022-06-24 17:50:55,15.08833736,0.0001649,53.2197,257.2206,45.2169,314.8957,9.7948e-06,-1.32e-06,0.0,0 STARLINK-3386,1 51126U 22005Y   22175.74369806 -.00000132  00000-0  97948-5 0  9993,2 51126  53.2197 257.2206 0001649  45.2169 314.8957 15.08833736 24349,6917.9,95.438,540.905,538.624,0.0
51126.0,STARLINK-3386,PAYLOAD,2022-06-25 12:55:32,15.08841744,0.0001693,53.2195,253.6519,47.2478,312.8656,6.4182e-05,7.34e-06,0.0,0 STARLINK-3386,1 51126U 22005Y   22176.53857275  .00000734  00000-0  64182-4 0  9993,2 51126  53.2195 253.6519 0001693  47.2478 312.8656 15.08841744 25576,6917.875,95.437,540.911,538.569,0.0
